[
    {
      "id"  : 4777468,
      "lat" : 46.499708,
      "lon" : 11.454038,
      "tags" : {
               "addr:street" : "Blumauer Straße - Via Prato all'Isarco",
               "addr:street:it" : "Via Prato all'Isarco",
               "addr:street:de" : "Blumauer Straße",
               "addr:housenumber" : "118",
               "addr:postcode" : "39050",
               "addr:city" : "Völs am Schlern - Fiè allo Sciliar",
               "addr:city:it" : "Fiè allo Sciliar",
               "addr:city:de" : "Völs am Schlern"
               }
    }
,
    {
      "id"  : 4777469,
      "lat" : 46.499774,
      "lon" : 11.454116,
      "tags" : {
               "addr:street" : "Blumauer Straße - Via Prato all'Isarco",
               "addr:street:it" : "Via Prato all'Isarco",
               "addr:street:de" : "Blumauer Straße",
               "addr:housenumber" : "120",
               "addr:postcode" : "39050",
               "addr:city" : "Völs am Schlern - Fiè allo Sciliar",
               "addr:city:it" : "Fiè allo Sciliar",
               "addr:city:de" : "Völs am Schlern"
               }
    }
,
    {
      "id"  : 4776221,
      "lat" : 46.497479,
      "lon" : 11.450585,
      "tags" : {
               "addr:street" : "Blumauer Straße - Via Prato all'Isarco",
               "addr:street:it" : "Via Prato all'Isarco",
               "addr:street:de" : "Blumauer Straße",
               "addr:housenumber" : "77",
               "addr:postcode" : "39050",
               "addr:city" : "Völs am Schlern - Fiè allo Sciliar",
               "addr:city:it" : "Fiè allo Sciliar",
               "addr:city:de" : "Völs am Schlern"
               }
    }
,
    {
      "id"  : 4776920,
      "lat" : 46.497576,
      "lon" : 11.450709,
      "tags" : {
               "addr:street" : "Blumauer Straße - Via Prato all'Isarco",
               "addr:street:it" : "Via Prato all'Isarco",
               "addr:street:de" : "Blumauer Straße",
               "addr:housenumber" : "79",
               "addr:postcode" : "39050",
               "addr:city" : "Völs am Schlern - Fiè allo Sciliar",
               "addr:city:it" : "Fiè allo Sciliar",
               "addr:city:de" : "Völs am Schlern"
               }
    }
,
    {
      "id"  : 4776921,
      "lat" : 46.497576,
      "lon" : 11.450709,
      "tags" : {
               "addr:street" : "Blumauer Straße - Via Prato all'Isarco",
               "addr:street:it" : "Via Prato all'Isarco",
               "addr:street:de" : "Blumauer Straße",
               "addr:housenumber" : "79",
               "addr:postcode" : "39050",
               "addr:city" : "Völs am Schlern - Fiè allo Sciliar",
               "addr:city:it" : "Fiè allo Sciliar",
               "addr:city:de" : "Völs am Schlern"
               }
    }
,
    {
      "id"  : 4777326,
      "lat" : 46.497842,
      "lon" : 11.451039,
      "tags" : {
               "addr:street" : "Blumauer Straße - Via Prato all'Isarco",
               "addr:street:it" : "Via Prato all'Isarco",
               "addr:street:de" : "Blumauer Straße",
               "addr:housenumber" : "83",
               "addr:postcode" : "39050",
               "addr:city" : "Völs am Schlern - Fiè allo Sciliar",
               "addr:city:it" : "Fiè allo Sciliar",
               "addr:city:de" : "Völs am Schlern"
               }
    }
,
    {
      "id"  : 4777456,
      "lat" : 46.498331,
      "lon" : 11.451895,
      "tags" : {
               "addr:street" : "Blumauer Straße - Via Prato all'Isarco",
               "addr:street:it" : "Via Prato all'Isarco",
               "addr:street:de" : "Blumauer Straße",
               "addr:housenumber" : "86",
               "addr:postcode" : "39050",
               "addr:city" : "Völs am Schlern - Fiè allo Sciliar",
               "addr:city:it" : "Fiè allo Sciliar",
               "addr:city:de" : "Völs am Schlern"
               }
    }
,
    {
      "id"  : 4777457,
      "lat" : 46.498429,
      "lon" : 11.452,
      "tags" : {
               "addr:street" : "Blumauer Straße - Via Prato all'Isarco",
               "addr:street:it" : "Via Prato all'Isarco",
               "addr:street:de" : "Blumauer Straße",
               "addr:housenumber" : "88",
               "addr:postcode" : "39050",
               "addr:city" : "Völs am Schlern - Fiè allo Sciliar",
               "addr:city:it" : "Fiè allo Sciliar",
               "addr:city:de" : "Völs am Schlern"
               }
    }
,
    {
      "id"  : 4777458,
      "lat" : 46.498538,
      "lon" : 11.452117,
      "tags" : {
               "addr:street" : "Blumauer Straße - Via Prato all'Isarco",
               "addr:street:it" : "Via Prato all'Isarco",
               "addr:street:de" : "Blumauer Straße",
               "addr:housenumber" : "90",
               "addr:postcode" : "39050",
               "addr:city" : "Völs am Schlern - Fiè allo Sciliar",
               "addr:city:it" : "Fiè allo Sciliar",
               "addr:city:de" : "Völs am Schlern"
               }
    }
,
    {
      "id"  : 4776210,
      "lat" : 46.498683,
      "lon" : 11.452239,
      "tags" : {
               "addr:street" : "Blumauer Straße - Via Prato all'Isarco",
               "addr:street:it" : "Via Prato all'Isarco",
               "addr:street:de" : "Blumauer Straße",
               "addr:housenumber" : "92",
               "addr:postcode" : "39050",
               "addr:city" : "Völs am Schlern - Fiè allo Sciliar",
               "addr:city:it" : "Fiè allo Sciliar",
               "addr:city:de" : "Völs am Schlern"
               }
    }
,
    {
      "id"  : 4777452,
      "lat" : 46.498788,
      "lon" : 11.452338,
      "tags" : {
               "addr:street" : "Blumauer Straße - Via Prato all'Isarco",
               "addr:street:it" : "Via Prato all'Isarco",
               "addr:street:de" : "Blumauer Straße",
               "addr:housenumber" : "94",
               "addr:postcode" : "39050",
               "addr:city" : "Völs am Schlern - Fiè allo Sciliar",
               "addr:city:it" : "Fiè allo Sciliar",
               "addr:city:de" : "Völs am Schlern"
               }
    }
,
    {
      "id"  : 4776209,
      "lat" : 46.49891,
      "lon" : 11.452449,
      "tags" : {
               "addr:street" : "Blumauer Straße - Via Prato all'Isarco",
               "addr:street:it" : "Via Prato all'Isarco",
               "addr:street:de" : "Blumauer Straße",
               "addr:housenumber" : "96",
               "addr:postcode" : "39050",
               "addr:city" : "Völs am Schlern - Fiè allo Sciliar",
               "addr:city:it" : "Fiè allo Sciliar",
               "addr:city:de" : "Völs am Schlern"
               }
    }
,
    {
      "id"  : 4777454,
      "lat" : 46.498964,
      "lon" : 11.45263,
      "tags" : {
               "addr:street" : "Blumauer Straße - Via Prato all'Isarco",
               "addr:street:it" : "Via Prato all'Isarco",
               "addr:street:de" : "Blumauer Straße",
               "addr:housenumber" : "98",
               "addr:postcode" : "39050",
               "addr:city" : "Völs am Schlern - Fiè allo Sciliar",
               "addr:city:it" : "Fiè allo Sciliar",
               "addr:city:de" : "Völs am Schlern"
               }
    }
,
    {
      "id"  : 4777455,
      "lat" : 46.49906,
      "lon" : 11.452762,
      "tags" : {
               "addr:street" : "Blumauer Straße - Via Prato all'Isarco",
               "addr:street:it" : "Via Prato all'Isarco",
               "addr:street:de" : "Blumauer Straße",
               "addr:housenumber" : "100",
               "addr:postcode" : "39050",
               "addr:city" : "Völs am Schlern - Fiè allo Sciliar",
               "addr:city:it" : "Fiè allo Sciliar",
               "addr:city:de" : "Völs am Schlern"
               }
    }
,
    {
      "id"  : 4776208,
      "lat" : 46.499345,
      "lon" : 11.452511,
      "tags" : {
               "addr:street" : "Blumauer Straße - Via Prato all'Isarco",
               "addr:street:it" : "Via Prato all'Isarco",
               "addr:street:de" : "Blumauer Straße",
               "addr:housenumber" : "101",
               "addr:postcode" : "39050",
               "addr:city" : "Völs am Schlern - Fiè allo Sciliar",
               "addr:city:it" : "Fiè allo Sciliar",
               "addr:city:de" : "Völs am Schlern"
               }
    }
,
    {
      "id"  : 4777470,
      "lat" : 46.499364,
      "lon" : 11.453381,
      "tags" : {
               "addr:street" : "Blumauer Straße - Via Prato all'Isarco",
               "addr:street:it" : "Via Prato all'Isarco",
               "addr:street:de" : "Blumauer Straße",
               "addr:housenumber" : "112",
               "addr:postcode" : "39050",
               "addr:city" : "Völs am Schlern - Fiè allo Sciliar",
               "addr:city:it" : "Fiè allo Sciliar",
               "addr:city:de" : "Völs am Schlern"
               }
    }
,
    {
      "id"  : 4777471,
      "lat" : 46.499451,
      "lon" : 11.453593,
      "tags" : {
               "addr:street" : "Blumauer Straße - Via Prato all'Isarco",
               "addr:street:it" : "Via Prato all'Isarco",
               "addr:street:de" : "Blumauer Straße",
               "addr:housenumber" : "114",
               "addr:postcode" : "39050",
               "addr:city" : "Völs am Schlern - Fiè allo Sciliar",
               "addr:city:it" : "Fiè allo Sciliar",
               "addr:city:de" : "Völs am Schlern"
               }
    }
,
    {
      "id"  : 4777451,
      "lat" : 46.499709,
      "lon" : 11.453879,
      "tags" : {
               "addr:street" : "Blumauer Straße - Via Prato all'Isarco",
               "addr:street:it" : "Via Prato all'Isarco",
               "addr:street:de" : "Blumauer Straße",
               "addr:housenumber" : "116",
               "addr:postcode" : "39050",
               "addr:city" : "Völs am Schlern - Fiè allo Sciliar",
               "addr:city:it" : "Fiè allo Sciliar",
               "addr:city:de" : "Völs am Schlern"
               }
    }
,
    {
      "id"  : 4776207,
      "lat" : 46.499966,
      "lon" : 11.453247,
      "tags" : {
               "addr:street" : "Blumauer Straße - Via Prato all'Isarco",
               "addr:street:it" : "Via Prato all'Isarco",
               "addr:street:de" : "Blumauer Straße",
               "addr:housenumber" : "103",
               "addr:postcode" : "39050",
               "addr:city" : "Völs am Schlern - Fiè allo Sciliar",
               "addr:city:it" : "Fiè allo Sciliar",
               "addr:city:de" : "Völs am Schlern"
               }
    }
,
    {
      "id"  : 4776223,
      "lat" : 46.500062,
      "lon" : 11.453277,
      "tags" : {
               "addr:street" : "Blumauer Straße - Via Prato all'Isarco",
               "addr:street:it" : "Via Prato all'Isarco",
               "addr:street:de" : "Blumauer Straße",
               "addr:housenumber" : "105",
               "addr:postcode" : "39050",
               "addr:city" : "Völs am Schlern - Fiè allo Sciliar",
               "addr:city:it" : "Fiè allo Sciliar",
               "addr:city:de" : "Völs am Schlern"
               }
    }
,
    {
      "id"  : 4777453,
      "lat" : 46.500121,
      "lon" : 11.453364,
      "tags" : {
               "addr:street" : "Blumauer Straße - Via Prato all'Isarco",
               "addr:street:it" : "Via Prato all'Isarco",
               "addr:street:de" : "Blumauer Straße",
               "addr:housenumber" : "107",
               "addr:postcode" : "39050",
               "addr:city" : "Völs am Schlern - Fiè allo Sciliar",
               "addr:city:it" : "Fiè allo Sciliar",
               "addr:city:de" : "Völs am Schlern"
               }
    }
,
    {
      "id"  : 4776205,
      "lat" : 46.500395,
      "lon" : 11.453927,
      "tags" : {
               "addr:street" : "Blumauer Straße - Via Prato all'Isarco",
               "addr:street:it" : "Via Prato all'Isarco",
               "addr:street:de" : "Blumauer Straße",
               "addr:housenumber" : "110",
               "addr:postcode" : "39050",
               "addr:city" : "Völs am Schlern - Fiè allo Sciliar",
               "addr:city:it" : "Fiè allo Sciliar",
               "addr:city:de" : "Völs am Schlern"
               }
    }
,
    {
      "id"  : 4776206,
      "lat" : 46.500433,
      "lon" : 11.453625,
      "tags" : {
               "addr:street" : "Blumauer Straße - Via Prato all'Isarco",
               "addr:street:it" : "Via Prato all'Isarco",
               "addr:street:de" : "Blumauer Straße",
               "addr:housenumber" : "109",
               "addr:postcode" : "39050",
               "addr:city" : "Völs am Schlern - Fiè allo Sciliar",
               "addr:city:it" : "Fiè allo Sciliar",
               "addr:city:de" : "Völs am Schlern"
               }
    }
,
    {
      "id"  : 4776440,
      "lat" : 46.496105,
      "lon" : 11.448905,
      "tags" : {
               "addr:street" : "Blumauer Straße - Via Prato all'Isarco",
               "addr:street:it" : "Via Prato all'Isarco",
               "addr:street:de" : "Blumauer Straße",
               "addr:housenumber" : "70b",
               "addr:postcode" : "39050",
               "addr:city" : "Völs am Schlern - Fiè allo Sciliar",
               "addr:city:it" : "Fiè allo Sciliar",
               "addr:city:de" : "Völs am Schlern"
               }
    }
,
    {
      "id"  : 4776439,
      "lat" : 46.496182,
      "lon" : 11.448871,
      "tags" : {
               "addr:street" : "Blumauer Straße - Via Prato all'Isarco",
               "addr:street:it" : "Via Prato all'Isarco",
               "addr:street:de" : "Blumauer Straße",
               "addr:housenumber" : "70a",
               "addr:postcode" : "39050",
               "addr:city" : "Völs am Schlern - Fiè allo Sciliar",
               "addr:city:it" : "Fiè allo Sciliar",
               "addr:city:de" : "Völs am Schlern"
               }
    }
,
    {
      "id"  : 4777459,
      "lat" : 46.496986,
      "lon" : 11.450205,
      "tags" : {
               "addr:street" : "Blumauer Straße - Via Prato all'Isarco",
               "addr:street:it" : "Via Prato all'Isarco",
               "addr:street:de" : "Blumauer Straße",
               "addr:housenumber" : "72",
               "addr:postcode" : "39050",
               "addr:city" : "Völs am Schlern - Fiè allo Sciliar",
               "addr:city:it" : "Fiè allo Sciliar",
               "addr:city:de" : "Völs am Schlern"
               }
    }
,
    {
      "id"  : 4777460,
      "lat" : 46.497012,
      "lon" : 11.450301,
      "tags" : {
               "addr:street" : "Blumauer Straße - Via Prato all'Isarco",
               "addr:street:it" : "Via Prato all'Isarco",
               "addr:street:de" : "Blumauer Straße",
               "addr:housenumber" : "74",
               "addr:postcode" : "39050",
               "addr:city" : "Völs am Schlern - Fiè allo Sciliar",
               "addr:city:it" : "Fiè allo Sciliar",
               "addr:city:de" : "Völs am Schlern"
               }
    }
,
    {
      "id"  : 4777462,
      "lat" : 46.497042,
      "lon" : 11.450391,
      "tags" : {
               "addr:street" : "Blumauer Straße - Via Prato all'Isarco",
               "addr:street:it" : "Via Prato all'Isarco",
               "addr:street:de" : "Blumauer Straße",
               "addr:housenumber" : "76",
               "addr:postcode" : "39050",
               "addr:city" : "Völs am Schlern - Fiè allo Sciliar",
               "addr:city:it" : "Fiè allo Sciliar",
               "addr:city:de" : "Völs am Schlern"
               }
    }
,
    {
      "id"  : 4776211,
      "lat" : 46.497108,
      "lon" : 11.450445,
      "tags" : {
               "addr:street" : "Blumauer Straße - Via Prato all'Isarco",
               "addr:street:it" : "Via Prato all'Isarco",
               "addr:street:de" : "Blumauer Straße",
               "addr:housenumber" : "78",
               "addr:postcode" : "39050",
               "addr:city" : "Völs am Schlern - Fiè allo Sciliar",
               "addr:city:it" : "Fiè allo Sciliar",
               "addr:city:de" : "Völs am Schlern"
               }
    }
,
    {
      "id"  : 4777463,
      "lat" : 46.497145,
      "lon" : 11.450007,
      "tags" : {
               "addr:street" : "Blumauer Straße - Via Prato all'Isarco",
               "addr:street:it" : "Via Prato all'Isarco",
               "addr:street:de" : "Blumauer Straße",
               "addr:housenumber" : "71",
               "addr:postcode" : "39050",
               "addr:city" : "Völs am Schlern - Fiè allo Sciliar",
               "addr:city:it" : "Fiè allo Sciliar",
               "addr:city:de" : "Völs am Schlern"
               }
    }
,
    {
      "id"  : 4777464,
      "lat" : 46.497169,
      "lon" : 11.450094,
      "tags" : {
               "addr:street" : "Blumauer Straße - Via Prato all'Isarco",
               "addr:street:it" : "Via Prato all'Isarco",
               "addr:street:de" : "Blumauer Straße",
               "addr:housenumber" : "73",
               "addr:postcode" : "39050",
               "addr:city" : "Völs am Schlern - Fiè allo Sciliar",
               "addr:city:it" : "Fiè allo Sciliar",
               "addr:city:de" : "Völs am Schlern"
               }
    }
,
    {
      "id"  : 4777465,
      "lat" : 46.497194,
      "lon" : 11.450177,
      "tags" : {
               "addr:street" : "Blumauer Straße - Via Prato all'Isarco",
               "addr:street:it" : "Via Prato all'Isarco",
               "addr:street:de" : "Blumauer Straße",
               "addr:housenumber" : "75",
               "addr:postcode" : "39050",
               "addr:city" : "Völs am Schlern - Fiè allo Sciliar",
               "addr:city:it" : "Fiè allo Sciliar",
               "addr:city:de" : "Völs am Schlern"
               }
    }
]